[{"OBJECT_NAME":"STARLINK-30073","OBJECT_ID":"2023-079T","EPOCH":"2026-03-09T22:00:01.999584","MEAN_MOTION":15.27575359,"ECCENTRICITY":0.00020534,"INCLINATION":43.0005,"RA_OF_ASC_NODE":291.0924,"ARG_OF_PERICENTER":288.9142,"MEAN_ANOMALY":240.4544,"EPHEMERIS_TYPE":0,"CLASSIFICATION_TYPE":"U","NORAD_CAT_ID":56840,"ELEMENT_SET_NO":999,"REV_AT_EPOCH":574,"BSTAR":0.00066101027,"MEAN_MOTION_DOT":0.0001797,"MEAN_MOTION_DDOT":0},{"OBJECT_NAME":"STARLINK-30843","OBJECT_ID":"2023-171M","EPOCH":"2026-03-09T22:00:01.999584","MEAN_MOTION":15.26715743,"ECCENTRICITY":0.00015491,"INCLINATION":42.9993,"RA_OF_ASC_NODE":283.9953,"ARG_OF_PERICENTER":280.512,"MEAN_ANOMALY":255.7863,"EPHEMERIS_TYPE":0,"CLASSIFICATION_TYPE":"U","NORAD_CAT_ID":58241,"ELEMENT_SET_NO":999,"REV_AT_EPOCH":573,"BSTAR":0.0010707785,"MEAN_MOTION_DOT":0.00028553,"MEAN_MOTION_DDOT":0}]
